[{"OBJECT_NAME":"NINGXIA-1 7","OBJECT_ID":"2021-064B","EPOCH":"2026-03-09T23:03:16.134624","MEAN_MOTION":14.08535138,"ECCENTRICITY":0.00060368,"INCLINATION":45.0039,"RA_OF_ASC_NODE":315.6009,"ARG_OF_PERICENTER":124.1771,"MEAN_ANOMALY":235.9639,"EPHEMERIS_TYPE":0,"CLASSIFICATION_TYPE":"U","NORAD_CAT_ID":49019,"ELEMENT_SET_NO":999,"REV_AT_EPOCH":24025,"BSTAR":0.00016183554,"MEAN_MOTION_DOT":1.48e-6,"MEAN_MOTION_DDOT":0},{"OBJECT_NAME":"CZ-6A DEB","OBJECT_ID":"2022-151MP","EPOCH":"2026-03-09T21:20:46.404672","MEAN_MOTION":13.97409377,"ECCENTRICITY":0.01170439,"INCLINATION":98.8675,"RA_OF_ASC_NODE":42.5255,"ARG_OF_PERICENTER":346.8715,"MEAN_ANOMALY":12.9409,"EPHEMERIS_TYPE":0,"CLASSIFICATION_TYPE":"U","NORAD_CAT_ID":54587,"ELEMENT_SET_NO":999,"REV_AT_EPOCH":16876,"BSTAR":0.0003802663,"MEAN_MOTION_DOT":5.23e-6,"MEAN_MOTION_DDOT":0}]
